satname,norad_id,inclination_deg,eccentricity,mean_motion_rev_per_day,perigee_km,apogee_km,l1,l2
STARLINK-1184,45098,53.0544,0.0004105,15.08797107,537.0346550912091,542.7143425317345,1 45098U 20006BG  26033.31186190  .00026976  00000+0  17082-2 0  9996,2 45098  53.0544  45.0246 0004105  30.9702 329.1530 15.08797107331691
STARLINK-1193,45100,53.0539,0.0003478,15.45754551,426.7942967558547,431.5294538535163,1 45100U 20006BJ  26033.66670139  .00069610  00000+0  14119-2 0  9999,2 45100  53.0539  38.4495 0003478  70.6459 100.6980 15.45754551  5802
STARLINK-1143,45179,53.0497,0.0002961,15.55835121,397.71919636270195,401.73304690333316,1 45179U 20012B   26033.55380865  .00122678  00000+0  17229-2 0  9993,2 45179  53.0497 140.6954 0002961 293.5757  66.4942 15.55835121330442
STARLINK-1202,45183,53.1568,0.0001138,15.29373127,476.904882896406,478.46526800077845,1 45183U 20012F   26032.89346457  .00007949  00000+0  28737-3 0  9993,2 45183  53.1568 205.4937 0001138  90.4835 269.6295 15.29373127329477
STARLINK-1216,45185,53.1595,0.0001188,15.30202998,474.3919407839212,476.0202951087449,1 45185U 20012H   26033.00002315  .00024572  00000+0  83893-3 0  9996,2 45185  53.1595 205.0033 0001188  73.8948 191.7116 15.30202998  5799
STARLINK-1225,45187,53.1606,9.79e-05,15.30202799,474.5357697731706,475.8776544720049,1 45187U 20012K   26033.66670139 -.00010522  00000+0 -34359-3 0  9990,2 45187  53.1606 202.3455 0000979  69.0419 288.2379 15.30202799  5746
STARLINK-1230,45189,53.158,0.0002568,15.3019382,473.4735762974642,476.9934673974858,1 45189U 20012M   26033.66670139  .00042149  00000+0  14274-2 0  9993,2 45189  53.1580 202.4062 0002568  12.7041 292.2361 15.30193820  5544
STARLINK-1234,45190,53.0475,0.0008741,15.54205731,398.5337843559355,410.3911247223614,1 45190U 20012N   26033.50101643  .00101800  00000+0  15209-2 0  9996,2 45190  53.0475 136.2399 0008741 198.4777 161.5917 15.54205731330392
STARLINK-1269,45197,53.1593,0.0001645,15.30187923,474.1237470543101,476.3785117488824,1 45197U 20012V   26033.66670139 -.00004658  00000+0 -14529-3 0  9991,2 45197  53.1593 202.2645 0001645  97.7232 224.8016 15.30187923  5794
STARLINK-1154,45198,53.0517,0.0002499,15.40754373,442.1768216662422,445.58646658457656,1 45198U 20012W   26033.39129503  .00084121  00000+0  20130-2 0  9991,2 45198  53.0517 177.6749 0002499 322.4967  37.5862 15.40754373329844
STARLINK-1199,45201,53.0563,0.0001239,15.06395428,546.367518072745,548.0836229177139,1 45201U 20012Z   26033.43787703 -.00001640  00000+0 -91227-4 0  9997,2 45201  53.0563 184.8694 0001239  88.8227 271.2904 15.06395428329806
STARLINK-1209,45206,53.0492,0.0010663,15.44627476,425.21072685434683,439.73503348479517,1 45206U 20012AE  26033.66670139  .00116676  00000+0  24342-2 0  9997,2 45206  53.0492 140.9457 0010663 179.6296 124.2533 15.44627476  5694
STARLINK-1210,45207,53.0117,0.0007929,15.89723225,297.7607033942486,308.35574277901924,1 45207U 20012AF  26033.66670139  .00289040  41630-4  96408-3 0  9996,2 45207  53.0117  80.0021 0007929  10.5641 316.3376 15.89723225  6012
STARLINK-1231,45212,53.05,6.08e-05,15.1827759,510.6271197547321,511.4648444053528,1 45212U 20012AL  26033.36058316  .00042997  00000+0  20753-2 0  9994,2 45212  53.0500 177.6601 0000608 258.3833 101.7093 15.18277590329856
STARLINK-1271,45217,53.0546,0.0001221,15.06401434,546.3615784160038,548.0527474605942,1 45217U 20012AR  26032.82603250  .00009777  00000+0  67432-3 0  9997,2 45217  53.0546 187.6174 0001221  96.3282 263.7846 15.06401434329710
STARLINK-1191,45222,53.1602,0.000146,15.31035542,471.72120092946807,473.7216515899354,1 45222U 20012AW  26032.62848813  .00004868  00000+0  17198-3 0  9997,2 45222  53.1602 166.4638 0001460  99.8781 260.2385 15.31035542329998
STARLINK-1212,45223,53.0534,0.0001223,15.41872812,439.7482924051701,441.41615112681393,1 45223U 20012AX  26033.63126191  .00021657  00000+0  51052-3 0  9990,2 45223  53.0534 157.4266 0001223 334.1099  25.9844 15.41872812330216
STARLINK-1215,45225,53.1567,0.0001304,15.29355568,476.84354516966687,478.63155725262277,1 45225U 20012AZ  26033.51599074  .00000143  00000+0  17287-4 0  9993,2 45225  53.1567 161.6754 0001304  74.2883 285.8261 15.29355568330093
STARLINK-1221,45227,53.0663,0.0001819,15.40546727,443.25360757962426,445.73568097181123,1 45227U 20012BB  26033.50567445  .00017456  00000+0  43205-3 0  9994,2 45227  53.0663  76.1649 0001819 272.0363  88.0433 15.40546727331284
STARLINK-1222,45228,53.0571,9.72e-05,15.46533782,426.21363516612564,427.5365295149322,1 45228U 20012BC  26033.50325350  .00021604  00000+0  43524-3 0  9996,2 45228  53.0571 151.1742 0000972  48.7691 311.3399 15.46533782330175
STARLINK-1226,45229,53.1615,0.0001277,15.31046624,471.8135172960474,473.56321809495694,1 45229U 20012BD  26033.49372671  .00003927  00000+0  14100-3 0  9999,2 45229  53.1615 162.2411 0001277  78.7109 281.4036 15.31046624330025
STARLINK-1227,45230,53.1598,0.0001906,15.31142603,471.0963579760546,473.7077834698148,1 45230U 20012BE  26033.52139388  .00101914  00000+0  33082-2 0  9995,2 45230  53.1598 162.4295 0001906 113.8124 246.3077 15.31142603330148
STARLINK-1246,45235,53.156,0.0001174,15.29366906,476.89879134275725,478.50854273137793,1 45235U 20012BK  26033.66670139 -.00009577  00000+0 -31987-3 0  9996,2 45235  53.1560 201.8914 0001174  90.2219 199.3155 15.29366906  5793
STARLINK-1270,45237,53.0514,0.0001378,15.41224945,441.5530761456739,443.43284176236193,1 45237U 20012BM  26033.49836139  .00018583  00000+0  44909-3 0  9996,2 45237  53.0514 154.8970 0001378 251.9513 108.1341 15.41224945330236
STARLINK-1279,45360,53.0469,0.0008203,15.50041739,411.03036270376106,422.1778149340771,1 45360U 20019A   26033.38460069  .00091266  00000+0  15865-2 0  9990,2 45360  53.0469 269.0863 0008203  99.7459 260.4476 15.50041739325180
STARLINK-1301,45361,53.045,0.0010479,15.55965293,392.2459658781263,406.45021913500204,1 45361U 20019B   26033.37494599  .00098482  00000+0  13792-2 0  9999,2 45361  53.0450 276.2808 0010479  89.2483 270.9728 15.55965293325090
STARLINK-1262,45366,53.0546,0.0001117,15.06408274,546.4126408346438,547.9597580373984,1 45366U 20019G   26033.19644432  .00002057  00000+0  15691-3 0  9991,2 45366  53.0546 325.9530 0001117  88.9000 271.2116 15.06408274324388
STARLINK-1273,45367,53.0547,0.0001625,15.40082578,444.7564749824296,446.9742757544245,1 45367U 20019H   26033.66670139  .00092709  00000+0  22647-2 0  9998,2 45367  53.0547 320.8955 0001625 105.0463 241.7787 15.40082578  5793
STARLINK-1276,45368,53.0545,0.0001857,15.06390861,545.9535253699878,548.5256102272688,1 45368U 20019J   26033.52082799  .00000428  00000+0  47631-4 0  9992,2 45368  53.0545 324.4984 0001857  79.8641 280.2558 15.06390861324435
STARLINK-1277,45369,53.0564,7.82e-05,15.43471635,435.3397199497831,436.40543104739027,1 45369U 20019K   26033.52219037  .00072788  00000+0  15944-2 0  9998,2 45369  53.0564 320.2871 0000782  40.3017 319.8046 15.43471635324499
STARLINK-1281,45370,53.0531,0.0001388,15.06400043,546.250187787924,548.172664511023,1 45370U 20019L   26033.04532777  .00003036  00000+0  22260-3 0  9996,2 45370  53.0531 326.6319 0001388  87.2574 272.8573 15.06400043324366
STARLINK-1300,45374,53.0564,0.0001734,15.06396583,546.0211733150354,548.4228878268368,1 45374U 20019Q   26033.53188289  .00000899  00000+0  79222-4 0  9994,2 45374  53.0564 324.4480 0001734  85.8278 274.2909 15.06396583324431
STARLINK-1302,45375,53.0552,0.0001003,15.43500278,435.10483936794844,436.47171277832877,1 45375U 20019R   26033.49895609  .00066809  00000+0  14640-2 0  9995,2 45375  53.0552 319.8795 0001003  91.8075 268.3045 15.43500278324497
STARLINK-1304,45376,53.0555,0.0005405,15.4249421,435.0662778360329,442.43533355399086,1 45376U 20019S   26033.19963559  .00073279  00000+0  16579-2 0  9995,2 45376  53.0555 318.5448 0005405 101.6720 258.4892 15.42494210324485
STARLINK-1305,45377,53.0491,0.0006161,15.46078369,424.0179488948279,432.40473131950876,1 45377U 20019T   26033.04039860  .00081014  00000+0  16206-2 0  9992,2 45377  53.0491 303.1922 0006161  61.2697 298.8928 15.46078369324694
STARLINK-1319,45379,53.0502,0.0006991,15.51857983,406.55499537263677,416.0479882719028,1 45379U 20019V   26033.66670139  .00137187  00000+0  22197-2 0  9991,2 45379  53.0502 299.5138 0006991  79.4745 182.5124 15.51857983  5801
STARLINK-1266,45383,53.0537,0.0002009,15.41425956,440.52983382610546,443.2701246843708,1 45383U 20019Z   26033.16342009  .00076439  00000+0  17916-2 0  9998,2 45383  53.0537 301.6350 0002009 110.1003 250.0217 15.41425956324719
STARLINK-1267,45384,53.0549,0.0007979,15.43426935,430.56713439555006,441.4411408229471,1 45384U 20019AA  26033.14193389  .00090853  00000+0  19843-2 0  9999,2 45384  53.0549 296.6871 0007979 110.6886 249.4975 15.43426935324789
STARLINK-1272,45386,53.0474,0.0007565,15.49062357,414.3253454420119,424.61012140368075,1 45386U 20019AC  26033.65339139  .00091091  00000+0  16393-2 0  9994,2 45386  53.0474 278.6115 0007565  79.2261 280.9597 15.49062357325081
STARLINK-1274,45387,53.0304,0.0009996,15.42099174,433.0996089347718,446.73025836052057,1 45387U 20019AD  26033.65352832  .00086178  00000+0  19684-2 0  9996,2 45387  53.0304 269.7858 0009996 113.3500 246.8557 15.42099174325206
STARLINK-1280,45388,53.0485,0.0007397,15.5760856,389.5706727722845,399.59023097058343,1 45388U 20019AE  26033.00782616  .00104028  00000+0  13708-2 0  9999,2 45388  53.0485 296.7848 0007397  78.4293 281.7548 15.57608560324768
STARLINK-1283,45389,53.0477,0.0012677,15.4876678,411.71415290749974,428.95099266233865,1 45389U 20019AF  26033.37834525  .00088194  00000+0  16014-2 0  9995,2 45389  53.0477 280.0844 0012677 107.4777 252.7617 15.48766780325045
STARLINK-1284,45390,53.0542,0.0003089,15.45401909,428.0943035382443,432.30049252934896,1 45390U 20019AG  26033.11659705  .00077116  00000+0  15807-2 0  9995,2 45390  53.0542 301.3050 0003089 105.3202 254.8146 15.45401909324712
